     2.100          NAVIGATION                              RINEX VERSION / TYPE
fic2rin                                 12/22/2015 00:04:44 PGM / RUN BY / DATE
                                                            END OF HEADER
 1 15 12 21 22  0  0.0  .720564275980D-05  .909494701773D-12  .000000000000D+00
     .320000000000D+02  .103125000000D+02  .479127100424D-08  .157223969151D+01
     .480562448502D-06  .490085163619D-02  .594928860664D-05  .515365099907D+04
     .165600000000D+06 -.242143869400D-07  .597841633567D+00  .122934579849D-06
     .963411573891D+00  .264968750000D+03  .488842192457D+00 -.825641534141D-08
     .363943731146D-09  .100000000000D+01  .187600000000D+04  .000000000000D+00
     .240000000000D+01  .000000000000D+00  .512227416039D-08  .320000000000D+02
     .158406000000D+06  .400000000000D+01
 2 15 12 21 22  0  0.0  .598237384111D-03  .568434188608D-12  .000000000000D+00
     .640000000000D+02  .771875000000D+01  .517878714584D-08  .212284798080D+01
     .286847352982D-06  .151271664072D-01  .622496008873D-05  .515368185997D+04
     .165600000000D+06 -.154599547386D-06  .555732281280D+00 -.359490513802D-06
     .942150717731D+00  .248312500000D+03 -.219846211722D+01 -.830213153139D-08
     .456090426568D-09  .100000000000D+01  .187600000000D+04  .000000000000D+00
     .240000000000D+01  .000000000000D+00 -.204890966415D-07  .640000000000D+02
     .158406000000D+06  .400000000000D+01
 3 15 12 21 22  0  0.0 -.959262251854D-06 -.522959453519D-11  .000000000000D+00
     .460000000000D+02 -.384687500000D+02  .480734310228D-08 -.186033203914D+01
    -.210478901863D-05  .351677648723D-03  .846572220325D-05  .515379960251D+04
     .165600000000D+06 -.167638063431D-07  .163907607222D+01  .558793544769D-08
     .958756477861D+00  .218906250000D+03  .290253541672D+01 -.809748014969D-08
    -.394302138552D-09  .100000000000D+01  .187600000000D+04  .000000000000D+00
     .340000000000D+01  .000000000000D+00  .186264514923D-08  .460000000000D+02
     .158406000000D+06  .400000000000D+01
 5 15 12 21 22  0  0.0 -.162824522704D-03  .363797880709D-11  .000000000000D+00
     .530000000000D+02 -.306875000000D+02  .508878339683D-08 -.174084291657D+01
    -.183284282684D-05  .456780462991D-02  .819377601147D-05  .515369521141D+04
     .165600000000D+06  .856816768646D-07  .162928297676D+01 -.745058059692D-08
     .945887544470D+00  .209812500000D+03  .486561010168D+00 -.823605735056D-08
    -.375372778640D-09  .100000000000D+01  .187600000000D+04  .000000000000D+00
     .240000000000D+01  .000000000000D+00 -.107102096081D-07  .530000000000D+02
     .158406000000D+06  .400000000000D+01
 6 15 12 21 22  0  0.0  .116092618555D-03  .636646291241D-11  .000000000000D+00
     .450000000000D+02  .606250000000D+01  .472412535021D-08 -.290368114636D+01
     .409781932831D-06  .221035792492D-03  .606290996075D-05  .515359573555D+04
     .165600000000D+06  .130385160446D-07  .589387071572D+00 -.186264514923D-07
     .963274030333D+00  .262812500000D+03 -.288154064634D+01 -.815891127998D-08
     .395016454021D-09  .100000000000D+01  .187600000000D+04  .000000000000D+00
     .240000000000D+01  .000000000000D+00  .419095158577D-08  .450000000000D+02
     .158406000000D+06  .400000000000D+01
 7 15 12 21 22  0  0.0  .476587563753D-03 -.136424205266D-11  .000000000000D+00
     .780000000000D+02  .723437500000D+02  .466948021688D-08  .895913295893D+00
     .391155481339D-05  .900898908731D-02  .287964940071D-05  .515368678856D+04
     .165600000000D+06  .391155481339D-07 -.252597976622D+01  .856816768646D-07
     .968287708064D+00  .326000000000D+03 -.267881765272D+01 -.851285459456D-08
    -.132148361653D-10  .100000000000D+01  .187600000000D+04  .000000000000D+00
     .485000000000D+01  .000000000000D+00 -.111758708954D-07  .780000000000D+02
     .158406000000D+06  .400000000000D+01
 8 15 12 21 22  0  0.0 -.170879065990D-04 -.147792889038D-11  .000000000000D+00
     .780000000000D+02 -.401875000000D+02  .420660379336D-08 -.122380731715D+01
    -.197999179363D-05  .164324638899D-02  .110808759928D-04  .515362669563D+04
     .165600000000D+06  .149011611938D-07 -.460698539338D+00 -.149011611938D-07
     .961877458514D+00  .169156250000D+03 -.155990212946D+01 -.789247161027D-08
     .322870591713D-09  .100000000000D+01  .187600000000D+04  .000000000000D+00
     .340000000000D+01  .000000000000D+00  .465661287308D-08  .780000000000D+02
     .158406000000D+06  .400000000000D+01
 9 15 12 21 22  0  0.0  .334889627993D-04  .807176547823D-11  .000000000000D+00
     .620000000000D+02  .796875000000D+02  .450733060555D-08 -.263843008333D+01
     .418908894062D-05  .519961351529D-03  .109151005745D-04  .515367851448D+04
     .165600000000D+06 -.167638063431D-07  .268013269026D+01  .111758708954D-07
     .956220297248D+00  .169156250000D+03  .196161954082D+01 -.795890294883D-08
    -.260725145963D-10  .100000000000D+01  .187600000000D+04  .000000000000D+00
     .240000000000D+01  .000000000000D+00  .931322574615D-09  .620000000000D+02
     .158406000000D+06  .400000000000D+01
10 15 12 21 22  0  0.0  .453726388514D-04  .409272615798D-11  .000000000000D+00
     .102000000000D+03 -.387500000000D+02  .478984237330D-08 -.463987561001D+00
    -.201351940632D-05  .935971853323D-03  .853650271893D-05  .515368098259D+04
     .165600000000D+06  .335276126862D-07  .163493711856D+01 -.167638063431D-07
     .959027793574D+00  .213468750000D+03 -.296611199317D+01 -.811319509000D-08
    -.485734518507D-09  .100000000000D+01  .187600000000D+04  .000000000000D+00
     .340000000000D+01  .000000000000D+00  .325962901115D-08  .102000000000D+03
     .158406000000D+06  .400000000000D+01
11 15 12 21 22  0  0.0 -.623022671789D-03 -.204636307899D-11  .000000000000D+00
     .640000000000D+02  .174687500000D+02  .625133182163D-08  .100839001721D+01
     .789761543274D-06  .162470191717D-01  .764429569244D-05  .515364201927D+04
     .165600000000D+06 -.312924385071D-06  .232164967517D+00 -.132247805595D-06
     .895332752946D+00  .200468750000D+03  .148978866450D+01 -.914752388823D-08
     .511092717635D-09  .100000000000D+01  .187600000000D+04  .000000000000D+00
     .240000000000D+01  .000000000000D+00 -.121071934700D-07  .640000000000D+02
     .158406000000D+06  .400000000000D+01
12 15 12 21 22  0  0.0  .355106778443D-03  .295585778076D-11  .000000000000D+00
     .910000000000D+02 -.102281250000D+03  .392266339468D-08  .507839416956D+00
    -.534579157829D-05  .563053262886D-02  .621005892754D-05  .515356214333D+04
     .165600000000D+06  .745058059692D-08 -.145276175295D+01  .124797224998D-06
     .990034109660D+00  .273906250000D+03  .637298624674D+00 -.803997775449D-08
    -.450375902821D-09  .100000000000D+01  .187600000000D+04  .000000000000D+00
     .240000000000D+01  .000000000000D+00 -.125728547573D-07  .910000000000D+02
     .158406000000D+06  .400000000000D+01
13 15 12 21 22  0  0.0 -.173002015799D-03 -.261479726760D-11  .000000000000D+00
     .630000000000D+02  .114500000000D+03  .406874090796D-08  .182876695272D+01
     .585615634918D-05  .465981767047D-02  .109691172838D-04  .515369302177D+04
     .165600000000D+06  .119209289551D-06  .279837914146D+01  .204890966415D-07
     .972832233819D+00  .174312500000D+03  .200900071590D+01 -.774103673097D-08
     .621454457501D-10  .100000000000D+01  .187600000000D+04  .000000000000D+00
     .240000000000D+01  .000000000000D+00 -.111758708954D-07  .630000000000D+02
     .158406000000D+06  .400000000000D+01
14 15 12 21 22  0  0.0  .140313059092D-04 -.238742359215D-11  .000000000000D+00
     .300000000000D+02  .103156250000D+03  .417767401689D-08 -.259350701878D+01
     .540725886822D-05  .831634947099D-02  .118538737297D-04  .515371027756D+04
     .165600000000D+06  .160187482834D-06  .276239162004D+01 -.204890966415D-07
     .965298452944D+00  .150437500000D+03 -.194911942225D+01 -.772710757933D-08
     .842892252703D-10  .100000000000D+01  .187600000000D+04  .000000000000D+00
     .240000000000D+01  .000000000000D+00 -.931322574615D-08  .300000000000D+02
     .158406000000D+06  .400000000000D+01
15 15 12 21 22  0  0.0 -.288345385343D-03 -.193267624127D-11  .000000000000D+00
     .620000000000D+02  .957500000000D+02  .495734935064D-08  .292528042668D+01
     .490434467793D-05  .791640707757D-02  .120718032122D-04  .515377955627D+04
     .165600000000D+06 -.614672899246D-07  .263147128339D+01 -.782310962677D-07
     .931967024602D+00  .131500000000D+03  .455752539123D+00 -.805747848346D-08
    -.614311302817D-10  .100000000000D+01  .187600000000D+04  .000000000000D+00
     .240000000000D+01  .000000000000D+00 -.107102096081D-07  .620000000000D+02
     .158406000000D+06  .400000000000D+01
16 15 12 21 22  0  0.0 -.552870333195D-04  .341060513165D-11  .000000000000D+00
     .250000000000D+02 -.104656250000D+03  .382801659511D-08 -.155332559148D+01
    -.545941293240D-05  .830009079073D-02  .567175447941D-05  .515367653084D+04
     .165600000000D+06  .931322574615D-08 -.143401056494D+01 -.180676579475D-06
     .990564762713D+00  .286093750000D+03  .312680417857D+00 -.784746973576D-08
    -.279297348141D-09  .100000000000D+01  .187600000000D+04  .000000000000D+00
     .240000000000D+01  .000000000000D+00 -.102445483208D-07  .250000000000D+02
     .158406000000D+06  .400000000000D+01
17 15 12 21 22  0  0.0 -.197138171643D-03 -.909494701773D-12  .000000000000D+00
     .130000000000D+02 -.350312500000D+02  .384337437768D-08 -.253004188743D+01
    -.178627669811D-05  .108157482464D-01  .112280249596D-04  .515361479568D+04
     .165600000000D+06  .298023223877D-07 -.410279448094D+00 -.856816768646D-07
     .975051337179D+00  .169781250000D+03 -.198007199658D+01 -.746066790962D-08
     .406802659249D-09  .100000000000D+01  .187600000000D+04  .000000000000D+00
     .240000000000D+01  .000000000000D+00 -.107102096081D-07  .130000000000D+02
     .158406000000D+06  .400000000000D+01
